NORAD_CAT_ID,OBJECT_NAME,OBJECT_TYPE,EPOCH,MEAN_MOTION,ECCENTRICITY,INCLINATION,RA_OF_ASC_NODE,ARG_OF_PERICENTER,MEAN_ANOMALY,BSTAR,MEAN_MOTION_DOT,MEAN_MOTION_DDOT,TLE_LINE0,TLE_LINE1,TLE_LINE2,SEMIMAJOR_AXIS,PERIOD,APOGEE,PERIGEE,DECAYED
53994.0,STARLINK-5125,PAYLOAD,2023-01-29 23:50:18,15.08842014,0.000142,53.213,267.8571,74.8202,285.2947,0.00016331,2.312e-05,0.0,0 STARLINK-5125,1 53994U 22125AG  23029.99326955  .00002312  00000-0  16331-3 0  9991,2 53994  53.2130 267.8571 0001420  74.8202 285.2947 15.08842014 18236,6917.874,95.437,540.722,538.757,0.0
53994.0,STARLINK-5125,PAYLOAD,2023-01-30 14:08:46,15.08842467,0.0001458,53.2129,265.1811,72.5542,287.5609,0.00019084,2.751e-05,0.0,0 STARLINK-5125,1 53994U 22125AG  23030.58943021  .00002751  00000-0  19084-3 0  9992,2 53994  53.2129 265.1811 0001458  72.5542 287.5609 15.08842467 18259,6917.873,95.437,540.746,538.729,0.0
53994.0,STARLINK-5125,PAYLOAD,2023-01-30 22:05:42,15.08844857,0.0001466,53.2134,263.6935,74.9823,285.1331,0.00024373,3.594e-05,0.0,0 STARLINK-5125,1 53994U 22125AG  23030.92062935  .00003594  00000-0  24373-3 0  9999,2 53994  53.2134 263.6935 0001466  74.9823 285.1331 15.08844857 18309,6917.866,95.437,540.745,538.716,0.0
53994.0,STARLINK-5125,PAYLOAD,2023-01-31 01:16:28,15.08847241,0.000142,53.2133,263.0983,75.292,284.8229,0.00021437,3.126e-05,0.0,0 STARLINK-5125,1 53994U 22125AG  23031.05310784  .00003126  00000-0  21437-3 0  9991,2 53994  53.2133 263.0983 0001420  75.2920 284.8229 15.08847241 18398,6917.858,95.437,540.706,538.741,0.0
53994.0,STARLINK-5125,PAYLOAD,2023-01-31 17:10:19,15.08844016,0.000146,53.2128,260.1245,74.533,285.5823,0.00018023,2.582e-05,0.0,0 STARLINK-5125,1 53994U 22125AG  23031.71550868  .00002582  00000-0  18023-3 0  9995,2 53994  53.2128 260.1245 0001460  74.5330 285.5823 15.08844016 18498,6917.868,95.437,540.743,538.723,0.0
53994.0,STARLINK-5125,PAYLOAD,2023-01-31 20:21:06,15.08846016,0.0001461,53.213,259.5298,74.3949,285.7204,0.00020136,2.919e-05,0.0,0 STARLINK-5125,1 53994U 22125AG  23031.84798763  .00002919  00000-0  20136-3 0  9999,2 53994  53.2130 259.5298 0001461  74.3949 285.7204 15.08846016 18448,6917.862,95.437,540.738,538.716,0.0
53994.0,STARLINK-5125,PAYLOAD,2023-02-01 13:50:20,15.08838935,0.0001411,53.2127,256.2582,81.3423,278.7729,-2.5984e-05,-7.01e-06,0.0,0 STARLINK-5125,1 53994U 22125AG  23032.57662809 -.00000701  00000-0 -25984-4 0  9997,2 53994  53.2127 256.2582 0001411  81.3423 278.7729 15.08838935 18551,6917.884,95.438,540.725,538.773,0.0
53994.0,STARLINK-5125,PAYLOAD,2023-02-01 18:36:30,15.08840976,0.0001394,53.2127,255.3659,81.5165,278.5985,2.1977e-05,6.2e-07,0.0,0 STARLINK-5125,1 53994U 22125AG  23032.77534738  .00000062  00000-0  21977-4 0  9994,2 53994  53.2127 255.3659 0001394  81.5165 278.5985 15.08840976 18652,6917.877,95.437,540.707,538.778,0.0
53994.0,STARLINK-5125,PAYLOAD,2023-02-02 13:41:07,15.0883763,0.0001377,53.2125,251.7978,82.0326,278.0823,1.5625e-05,-3.9e-07,0.0,0 STARLINK-5125,1 53994U 22125AG  23033.57022881 -.00000039  00000-0  15625-4 0  9992,2 53994  53.2125 251.7978 0001377  82.0326 278.0823 15.08837630 18705,6917.888,95.438,540.705,538.8,0.0
53994.0,STARLINK-5125,PAYLOAD,2023-02-02 23:13:26,15.0884175,0.000133,53.2126,250.0134,84.1383,275.9761,3.8964e-05,3.32e-06,0.0,0 STARLINK-5125,1 53994U 22125AG  23033.96766646  .00000332  00000-0  38964-4 0  9995,2 53994  53.2126 250.0134 0001330  84.1383 275.9761 15.08841750 18836,6917.875,95.437,540.66,538.82,0.0
53994.0,STARLINK-5125,PAYLOAD,2023-02-03 10:21:08,15.08835091,0.0001262,53.2131,247.9312,88.0596,272.0541,6.5423e-05,7.53e-06,0.0,0 STARLINK-5125,1 53994U 22125AG  23034.43135369  .00000753  00000-0  65423-4 0  9997,2 53994  53.2131 247.9312 0001262  88.0596 272.0541 15.08835091 18901,6917.895,95.438,540.633,538.887,0.0
53994.0,STARLINK-5125,PAYLOAD,2023-02-03 13:31:55,15.08834638,0.0001311,53.213,247.3368,89.586,270.5282,7.1626e-05,8.52e-06,0.0,0 STARLINK-5125,1 53994U 22125AG  23034.56383416  .00000852  00000-0  71626-4 0  9991,2 53994  53.2130 247.3368 0001311  89.5860 270.5282 15.08834638 18855,6917.897,95.438,540.669,538.855,0.0
53994.0,STARLINK-5125,PAYLOAD,2023-02-03 16:42:41,15.08835826,0.0001401,53.2131,246.742,96.0778,264.0373,5.673e-05,6.15e-06,0.0,0 STARLINK-5125,1 53994U 22125AG  23034.69631392  .00000615  00000-0  56730-4 0  9990,2 53994  53.2131 246.7420 0001401  96.0778 264.0373 15.08835826 18870,6917.893,95.438,540.727,538.789,0.0
53994.0,STARLINK-5125,PAYLOAD,2023-02-04 13:22:41,15.08841816,0.0001238,53.2131,242.8761,92.4263,267.6871,0.00010092,1.319e-05,0.0,0 STARLINK-5125,1 53994U 22125AG  23035.55743025  .00001319  00000-0  10092-3 0  9995,2 53994  53.2131 242.8761 0001238  92.4263 267.6871 15.08841816 19006,6917.875,95.437,540.596,538.883,0.0
53994.0,STARLINK-5125,PAYLOAD,2023-02-04 19:44:14,15.08843175,0.0001236,53.2131,241.6865,89.4033,270.7101,0.00010493,1.383e-05,0.0,0 STARLINK-5125,1 53994U 22125AG  23035.82238923  .00001383  00000-0  10493-3 0  9997,2 53994  53.2131 241.6865 0001236  89.4033 270.7101 15.08843175 19110,6917.871,95.437,540.591,538.881,0.0
53994.0,STARLINK-5125,PAYLOAD,2023-02-04 21:19:37,15.0884352,0.0001239,53.2131,241.3892,88.5201,271.5933,0.00010604,1.4e-05,0.0,0 STARLINK-5125,1 53994U 22125AG  23035.88862875  .00001400  00000-0  10604-3 0  9996,2 53994  53.2131 241.3892 0001239  88.5201 271.5933 15.08843520 19056,6917.87,95.437,540.592,538.878,0.0
53994.0,STARLINK-5125,PAYLOAD,2023-02-05 08:27:19,15.08836525,0.0001335,53.213,239.3078,89.1222,270.9923,0.00014931,2.089e-05,0.0,0 STARLINK-5125,1 53994U 22125AG  23036.35231349  .00002089  00000-0  14931-3 0  9996,2 53994  53.2130 239.3078 0001335  89.1222 270.9923 15.08836525 19199,6917.891,95.438,540.68,538.832,0.0
53994.0,STARLINK-5125,PAYLOAD,2023-02-05 13:13:29,15.08836682,0.000124,53.2129,238.4155,87.2687,272.8447,8.508e-05,1.066e-05,0.0,0 STARLINK-5125,1 53994U 22125AG  23036.55103450  .00001066  00000-0  85080-4 0  9997,2 53994  53.2129 238.4155 0001240  87.2687 272.8447 15.08836682 19154,6917.891,95.438,540.613,538.898,0.0
53994.0,STARLINK-5125,PAYLOAD,2023-02-05 19:35:01,15.08840474,0.000123,53.2129,237.2258,89.1481,270.9652,0.00010909,1.449e-05,0.0,0 STARLINK-5125,1 53994U 22125AG  23036.81599175  .00001449  00000-0  10909-3 0  9991,2 53994  53.2129 237.2258 0001230  89.1481 270.9652 15.08840474 19192,6917.879,95.438,540.595,538.893,0.0
53994.0,STARLINK-5125,PAYLOAD,2023-02-06 13:04:16,15.08840526,0.0001228,53.2128,233.9543,89.5032,270.61,7.15e-05,8.5e-06,0.0,0 STARLINK-5125,1 53994U 22125AG  23037.54463312  .00000850  00000-0  71500-4 0  9995,2 53994  53.2128 233.9543 0001228  89.5032 270.6100 15.08840526 19300,6917.879,95.438,540.593,538.894,0.0
53994.0,STARLINK-5125,PAYLOAD,2023-02-06 19:25:48,15.08848042,0.0001247,53.213,232.7643,100.4862,259.6271,0.00013618,1.881e-05,0.0,0 STARLINK-5125,1 53994U 22125AG  23037.80958588  .00001881  00000-0  13618-3 0  9998,2 53994  53.2130 232.7643 0001247 100.4862 259.6271 15.08848042 19415,6917.856,95.437,540.583,538.858,0.0
53994.0,STARLINK-5125,PAYLOAD,2023-02-07 12:55:02,15.08848585,0.0001222,53.2127,229.4932,92.0742,268.039,0.00016509,2.341e-05,0.0,0 STARLINK-5125,1 53994U 22125AG  23038.53822241  .00002341  00000-0  16509-3 0  9999,2 53994  53.2127 229.4932 0001222  92.0742 268.0390 15.08848585 19453,6917.854,95.437,540.565,538.874,0.0
53994.0,STARLINK-5125,PAYLOAD,2023-02-07 19:16:35,15.08836759,0.0001247,53.2132,228.3024,108.4754,251.6373,1.3544e-05,-7.2e-07,0.0,0 STARLINK-5125,1 53994U 22125AG  23038.80319118 -.00000072  00000-0  13544-4 0  9990,2 53994  53.2132 228.3024 0001247 108.4754 251.6373 15.08836759 19562,6917.89,95.438,540.618,538.893,0.0
53994.0,STARLINK-5125,PAYLOAD,2023-02-08 07:59:41,15.08833894,0.0001288,53.2136,225.9246,90.0935,270.0204,3.1561e-05,2.14e-06,0.0,0 STARLINK-5125,1 53994U 22125AG  23039.33311611  .00000214  00000-0  31561-4 0  9995,2 53994  53.2136 225.9246 0001288  90.0935 270.0204 15.08833894 19573,6917.899,95.438,540.655,538.873,0.0
53994.0,STARLINK-5125,PAYLOAD,2023-02-08 19:07:22,15.08843631,0.0001238,53.2138,223.8431,86.6751,273.4383,3.9979e-05,3.49e-06,0.0,0 STARLINK-5125,1 53994U 22125AG  23039.79679088  .00000349  00000-0  39979-4 0  9990,2 53994  53.2138 223.8431 0001238  86.6751 273.4383 15.08843631 19643,6917.869,95.437,540.591,538.878,0.0
53994.0,STARLINK-5125,PAYLOAD,2023-02-09 11:01:14,15.08827751,0.000131,53.2131,220.8722,85.9561,274.1581,0.00013417,1.847e-05,0.0,0 STARLINK-5125,1 53994U 22125AG  23040.45919778  .00001847  00000-0  13417-3 0  9990,2 53994  53.2131 220.8722 0001310  85.9561 274.1581 15.08827751 19742,6917.918,95.438,540.689,538.877,0.0
53994.0,STARLINK-5125,PAYLOAD,2023-02-09 18:58:10,15.0881796,0.0001618,53.2158,219.3839,95.0563,265.0614,0.00026365,3.908e-05,0.0,0 STARLINK-5125,1 53994U 22125AG  23040.79040422  .00003908  00000-0  26365-3 0  9994,2 53994  53.2158 219.3839 0001618  95.0563 265.0614 15.08817960 19868,6917.948,95.439,540.932,538.693,0.0
53994.0,STARLINK-5125,PAYLOAD,2023-02-10 14:02:48,15.08834437,0.0001309,53.2138,215.8146,86.9571,273.1571,0.00016324,2.311e-05,0.0,0 STARLINK-5125,1 53994U 22125AG  23041.58528090  .00002311  00000-0  16324-3 0  9995,2 53994  53.2138 215.8146 0001309  86.9571 273.1571 15.08834437 19986,6917.897,95.438,540.668,538.857,0.0
53994.0,STARLINK-5125,PAYLOAD,2023-02-10 15:38:11,15.08840302,0.0001269,53.2139,215.5169,89.2301,270.8836,0.00012103,1.639e-05,0.0,0 STARLINK-5125,1 53994U 22125AG  23041.65151832  .00001639  00000-0  12103-3 0  9992,2 53994  53.2139 215.5169 0001269  89.2301 270.8836 15.08840302 19921,6917.879,95.438,540.622,538.867,0.0
53994.0,STARLINK-5125,PAYLOAD,2023-02-10 18:48:57,15.08844937,0.0001297,53.2133,214.9219,85.7453,274.3687,0.00020126,2.917e-05,0.0,0 STARLINK-5125,1 53994U 22125AG  23041.78399604  .00002917  00000-0  20126-3 0  9991,2 53994  53.2133 214.9219 0001297  85.7453 274.3687 15.08844937 20017,6917.865,95.437,540.628,538.833,0.0
